      2.10          N: GNSS NAV DATA                        RINEX VERSION / TYPE
fic2rin                                 04/13/2022 00:17:31 PGM / RUN BY / DATE
                                                            END OF HEADER
28 22  4 12 20  0  0.0 3.719422966242e-04-3.637978807092e-12 0.000000000000e+00
    5.400000000000e+01-9.500000000000e+00 4.666265797272e-09-2.706121669858e+00
   -3.892928361893e-07 1.664512616117e-02 4.567205905914e-06 5.153681224823e+03
    2.448000000000e+05 1.266598701477e-07 1.356571939992e+00 1.993030309677e-07
    9.685034211864e-01 2.897812500000e+02-1.282312456935e+00-7.916401178456e-09
   -1.035757429169e-10 1.000000000000e+00 2.205000000000e+03 0.000000000000e+00
    3.400000000000e+00 6.300000000000e+01-1.117587089539e-08 5.400000000000e+01
    2.376000000000e+05 4.000000000000e+00
 7 22  4 12 19 59 28.0 3.199721686542e-04 1.250555214938e-12 0.000000000000e+00
    8.000000000000e+00 4.590625000000e+01 4.818414992039e-09 2.385222053044e-01
    2.533197402954e-06 1.586182415485e-02 8.827075362206e-06 5.153672187805e+03
    2.447680000000e+05-1.005828380585e-07 2.214840007376e-01 2.663582563400e-07
    9.513102219121e-01 2.077500000000e+02-2.278363908533e+00-8.338561620276e-09
    4.493044296187e-10 1.000000000000e+00 2.205000000000e+03 0.000000000000e+00
    2.400000000000e+00 0.000000000000e+00-1.117587089539e-08 8.000000000000e+00
    2.385300000000e+05 4.000000000000e+00
13 22  4 12 19 59 44.0 2.930467016995e-04 6.707523425575e-12 0.000000000000e+00
    7.000000000000e+00-5.443750000000e+01 3.958022010361e-09 2.645531093538e+00
   -2.784654498100e-06 5.850650719367e-03 1.085735857487e-05 5.153680419922e+03
    2.447840000000e+05 8.568167686462e-08-6.962272836324e-01-6.519258022308e-08
    9.687844989516e-01 1.750312500000e+02 9.316250718894e-01-7.664247818114e-09
    2.571535686212e-11 1.000000000000e+00 2.205000000000e+03 0.000000000000e+00
    2.400000000000e+00 0.000000000000e+00-1.117587089539e-08 7.000000000000e+00
    2.385300000000e+05 4.000000000000e+00
27 22  4 12 19 59 44.0 1.814085990191e-04 9.322320693173e-12 0.000000000000e+00
    1.300000000000e+01 6.281250000000e+00 4.098384999900e-09 3.125761052151e+00
    1.545995473862e-07 1.050330419093e-02 1.087971031666e-05 5.153659538269e+03
    2.447840000000e+05-8.754432201385e-08 2.309845036626e+00-1.899898052216e-07
    9.727562878897e-01 1.752812500000e+02 6.661393611839e-01-7.648175720075e-09
   -3.600149960697e-10 1.000000000000e+00 2.205000000000e+03 0.000000000000e+00
    2.400000000000e+00 0.000000000000e+00 1.396983861923e-09 1.300000000000e+01
    2.424000000000e+05 4.000000000000e+00
10 22  4 12 19 59 44.0-3.771353513002e-04-1.261923898710e-11 0.000000000000e+00
    1.600000000000e+01-4.493750000000e+01 4.469114727996e-09-1.130693931678e+00
   -2.419576048851e-06 7.553967880085e-03 3.626570105553e-06 5.153677270889e+03
    2.447840000000e+05 1.769512891769e-07-1.881113325886e+00-1.862645149231e-09
    9.727315470191e-01 3.166562500000e+02-2.492694971322e+00-8.246414924853e-09
   -2.146517982518e-10 1.000000000000e+00 2.205000000000e+03 0.000000000000e+00
    2.400000000000e+00 0.000000000000e+00 2.328306436539e-09 1.600000000000e+01
    2.424300000000e+05 4.000000000000e+00
 7 22  4 12 21 59 28.0 3.199805505574e-04 1.136868377216e-12 0.000000000000e+00
    1.100000000000e+01 4.590625000000e+01 4.740911763719e-09 1.288627498313e+00
    2.479180693626e-06 1.586326223332e-02 9.505078196526e-06 5.153675806046e+03
    2.519680000000e+05-2.253800630569e-07 2.214246194299e-01 9.499490261078e-08
    9.513128800342e-01 1.943125000000e+02-2.278287121426e+00-8.301417215920e-09
    3.389426897521e-10 1.000000000000e+00 2.205000000000e+03 0.000000000000e+00
    2.400000000000e+00 0.000000000000e+00-1.117587089539e-08 1.100000000000e+01
    2.448000000000e+05 4.000000000000e+00
13 22  4 12 21 59 44.0 2.930946648121e-04 6.707523425575e-12 0.000000000000e+00
    8.000000000000e+00-6.340625000000e+01 3.953021802082e-09-2.587424576985e+00
   -3.201887011528e-06 5.851704976521e-03 1.098029315472e-05 5.153678472519e+03
    2.519840000000e+05-2.793967723846e-08-6.962816076323e-01-1.303851604462e-08
    9.687846291513e-01 1.725937500000e+02 9.315689119273e-01-7.586387432059e-09
   -5.750239520557e-11 1.000000000000e+00 2.205000000000e+03 0.000000000000e+00
    2.400000000000e+00 0.000000000000e+00-1.117587089539e-08 8.000000000000e+00
    2.448000000000e+05 4.000000000000e+00
10 22  4 12 21 59 44.0-3.772266209126e-04-1.261923898710e-11 0.000000000000e+00
    1.700000000000e+01-3.928125000000e+01 4.598762985509e-09-8.051012239261e-02
   -2.108514308929e-06 7.554643554613e-03 3.235414624214e-06 5.153678365707e+03
    2.519840000000e+05 3.725290298462e-09-1.881173361118e+00 5.029141902924e-08
    9.727291697772e-01 3.203437500000e+02-2.492699815044e+00-8.418922110470e-09
   -2.250093725435e-10 1.000000000000e+00 2.205000000000e+03 0.000000000000e+00
    2.400000000000e+00 0.000000000000e+00 2.328306436539e-09 1.700000000000e+01
    2.448000000000e+05 4.000000000000e+00
27 22  4 12 21 59 44.0 1.814761199057e-04 9.322320693173e-12 0.000000000000e+00
    1.400000000000e+01-4.875000000000e+00 4.220532944995e-09-2.107402618989e+00
   -4.954636096954e-07 1.050566614140e-02 9.868294000626e-06 5.153654115677e+03
    2.519840000000e+05 1.732259988785e-07 2.309788393901e+00-1.043081283569e-07
    9.727541125305e-01 1.941250000000e+02 6.663065098149e-01-7.754251567131e-09
   -1.589351917173e-10 1.000000000000e+00 2.205000000000e+03 0.000000000000e+00
    2.400000000000e+00 0.000000000000e+00 1.396983861923e-09 1.400000000000e+01
    2.448000000000e+05 4.000000000000e+00
 2 22  4 12 22  0  0.0-6.530708633363e-04-2.273736754432e-13 0.000000000000e+00
    8.900000000000e+01 6.893750000000e+01 4.349466887040e-09 2.109716803247e+00
    3.471970558167e-06 2.051583852153e-02 7.571652531624e-06 5.153642280579e+03
    2.520000000000e+05 2.384185791016e-07-3.003117146741e+00-1.527369022369e-07
    9.659070970848e-01 2.260000000000e+02-1.424853233188e+00-7.726393263864e-09
    1.182192100189e-10 1.000000000000e+00 2.205000000000e+03 0.000000000000e+00
    2.400000000000e+00 0.000000000000e+00-1.769512891769e-08 8.900000000000e+01
    2.448000000000e+05 4.000000000000e+00
 1 22  4 12 22  0  0.0 3.864793106914e-04-8.753886504564e-12 0.000000000000e+00
    5.400000000000e+01 7.890625000000e+01 4.031953661340e-09 1.967573049795e+00
    3.889203071594e-06 1.170762069523e-02 7.627531886101e-06 5.153669153214e+03
    2.520000000000e+05-2.440065145493e-07-2.912724477294e+00-1.844018697739e-07
    9.876777421595e-01 2.478750000000e+02 8.910957369599e-01-7.869256357542e-09
    3.414427938915e-10 1.000000000000e+00 2.205000000000e+03 0.000000000000e+00
    2.400000000000e+00 0.000000000000e+00 5.122274160385e-09 5.400000000000e+01
    2.448000000000e+05 4.000000000000e+00
 5 22  4 12 22  0  0.0-7.807835936546e-05-1.364242052659e-12 0.000000000000e+00
    8.200000000000e+01-3.090625000000e+01 4.799842789861e-09-1.653575784766e+00
   -1.586973667145e-06 5.912818829529e-03 2.704560756683e-06 5.153696949005e+03
    2.520000000000e+05 1.862645149231e-07-1.919571802259e+00-3.725290298462e-09
    9.599386195366e-01 3.272500000000e+02 1.008769897532e+00-8.349276352302e-09
   -1.464346710204e-10 1.000000000000e+00 2.205000000000e+03 0.000000000000e+00
    2.400000000000e+00 0.000000000000e+00-1.117587089539e-08 8.200000000000e+01
    2.448000000000e+05 4.000000000000e+00
 3 22  4 12 22  0  0.0-2.040681429207e-04-1.546140993014e-11 0.000000000000e+00
    1.000000000000e+02-4.284375000000e+01 4.586619622546e-09 8.454478506280e-01
   -2.166256308556e-06 4.033968667500e-03 3.453344106674e-06 5.153644794464e+03
    2.520000000000e+05-5.587935447693e-08-1.878403992826e+00 7.636845111847e-08
    9.729130512652e-01 3.188125000000e+02 9.415805366316e-01-8.390349491734e-09
   -2.325096849617e-10 1.000000000000e+00 2.205000000000e+03 0.000000000000e+00
    2.400000000000e+00 0.000000000000e+00 1.862645149231e-09 1.000000000000e+02
    2.448000000000e+05 4.000000000000e+00
19 22  4 12 22  0  0.0 1.435615122318e-04 5.002220859751e-12 0.000000000000e+00
    8.000000000000e+00-2.093750000000e+00 4.081598586393e-09 2.431002757708e-01
   -6.519258022308e-08 9.130055201240e-03 1.146830618382e-05 5.153698297501e+03
    2.520000000000e+05-6.705522537231e-08 2.417475148378e+00-9.499490261078e-08
    9.780839663574e-01 1.705312500000e+02 2.034889615812e+00-7.912829601114e-09
   -2.539391490134e-10 1.000000000000e+00 2.205000000000e+03 0.000000000000e+00
    2.400000000000e+00 0.000000000000e+00-1.583248376846e-08 8.000000000000e+00
    2.448000000000e+05 4.000000000000e+00
12 22  4 12 22  0  0.0-1.994054764509e-04-5.798028723802e-12 0.000000000000e+00
    8.900000000000e+01-7.843750000000e+00 4.741983236921e-09 6.683656503978e-01
   -6.183981895447e-07 8.724157931283e-03 4.835426807404e-06 5.153560581207e+03
    2.520000000000e+05-8.568167686462e-08 1.334466839660e+00-1.862645149231e-09
    9.694343886049e-01 2.905625000000e+02 1.272422014513e+00-8.376063182367e-09
   -1.739358165535e-10 1.000000000000e+00 2.205000000000e+03 0.000000000000e+00
    2.400000000000e+00 0.000000000000e+00-1.257285475731e-08 8.900000000000e+01
    2.448000000000e+05 4.000000000000e+00
 8 22  4 12 22  0  0.0-6.368290632963e-05-1.591615728103e-12 0.000000000000e+00
    8.300000000000e+01-3.781250000000e+00 4.387682764599e-09-2.113796491171e+00
   -4.842877388000e-07 7.438626955263e-03 1.067109405994e-05 5.153750160217e+03
    2.520000000000e+05 1.676380634308e-08 2.289893408760e+00-2.123415470123e-07
    9.640159038862e-01 1.771250000000e+02 1.511016982437e-01-7.930330330090e-09
   -2.517962026082e-10 1.000000000000e+00 2.205000000000e+03 0.000000000000e+00
    3.400000000000e+00 0.000000000000e+00 5.122274160385e-09 8.300000000000e+01
    2.448000000000e+05 4.000000000000e+00
